[
    {
        "Altitude(m)": 607897.6193251793,
        "Argument of Periapsis(deg)": 0.0,
        "Eccentricity": 0.0,
        "Inclination(deg)": 60.0,
        "Latitude(deg)": -14.292960963417402,
        "Longitude(deg)": 171.6187317306627,
        "Mean Anomaly(deg)": -16.363600000000087,
        "RAAN(deg)": 280.0,
        "Satellite Name": "Test1 1253",
        "Satellite Number": 1253,
        "Semi-Major Axis(m)": 6980739.136638005,
        "Time(s)": 0
    },
    {
        "Altitude(m)": 607750.8205291989,
        "Argument of Periapsis(deg)": 0.00010418945913296404,
        "Eccentricity": 0.0,
        "Inclination(deg)": 60.0,
        "Latitude(deg)": -13.758802829883665,
        "Longitude(deg)": 171.90580159865635,
        "Mean Anomaly(deg)": -15.743493854538235,
        "RAAN(deg)": 279.99957995086027,
        "Satellite Name": "Test1 1253",
        "Satellite Number": 1253,
        "Semi-Major Axis(m)": 6980739.136638005,
        "Time(s)": 10
    },
    {
        "Altitude(m)": 607606.5460095,
        "Argument of Periapsis(deg)": 0.0002083789182659281,
        "Eccentricity": 0.0,
        "Inclination(deg)": 60.0,
        "Latitude(deg)": -13.224169946203714,
        "Longitude(deg)": 172.19139506120018,
        "Mean Anomaly(deg)": -15.123387709076383,
        "RAAN(deg)": 279.9991599017205,
        "Satellite Name": "Test1 1253",
        "Satellite Number": 1253,
        "Semi-Major Axis(m)": 6980739.136638005,
        "Time(s)": 20
    },
    {
        "Altitude(m)": 607464.8401382653,
        "Argument of Periapsis(deg)": 0.00031256837739889213,
        "Eccentricity": 0.0,
        "Inclination(deg)": 60.0,
        "Latitude(deg)": -12.689082616988863,
        "Longitude(deg)": 172.4755767977374,
        "Mean Anomaly(deg)": -14.503281563614578,
        "RAAN(deg)": 279.9987398525808,
        "Satellite Name": "Test1 1253",
        "Satellite Number": 1253,
        "Semi-Major Axis(m)": 6980739.136638005,
        "Time(s)": 30
    },
    {
        "Altitude(m)": 607325.7460105872,
        "Argument of Periapsis(deg)": 0.0004167578365318562,
        "Eccentricity": 0.0,
        "Inclination(deg)": 60.0,
        "Latitude(deg)": -12.153560874303777,
        "Longitude(deg)": 172.75841114505877,
        "Mean Anomaly(deg)": -13.883175418152726,
        "RAAN(deg)": 279.99831980344106,
        "Satellite Name": "Test1 1253",
        "Satellite Number": 1253,
        "Semi-Major Axis(m)": 6980739.136638005,
        "Time(s)": 40
    },
    {
        "Altitude(m)": 607189.3054261621,
        "Argument of Periapsis(deg)": 0.0005209472956648203,
        "Eccentricity": 0.0,
        "Inclination(deg)": 60.0,
        "Latitude(deg)": -11.617624491606339,
        "Longitude(deg)": 173.03996112883638,
        "Mean Anomaly(deg)": -13.263069272690874,
        "RAAN(deg)": 279.9978997543013,
        "Satellite Name": "Test1 1253",
        "Satellite Number": 1253,
        "Semi-Major Axis(m)": 6980739.136638005,
        "Time(s)": 50
    },
    {
        "Altitude(m)": 607055.5588715975,
        "Argument of Periapsis(deg)": 0.0006251367547977843,
        "Eccentricity": 0.0,
        "Inclination(deg)": 60.0,
        "Latitude(deg)": -11.081292997334476,
        "Longitude(deg)": 173.32028900735386,
        "Mean Anomaly(deg)": -12.642963127229018,
        "RAAN(deg)": 279.9974797051615,
        "Satellite Name": "Test1 1253",
        "Satellite Number": 1253,
        "Semi-Major Axis(m)": 6980739.136638005,
        "Time(s)": 60
    },
    {
        "Altitude(m)": 606924.545503337,
        "Argument of Periapsis(deg)": 0.0007293262139307483,
        "Eccentricity": 0.0,
        "Inclination(deg)": 60.0,
        "Latitude(deg)": -10.54458568815673,
        "Longitude(deg)": 173.5994568145896,
        "Mean Anomaly(deg)": -12.02285698176722,
        "RAAN(deg)": 279.9970596560218,
        "Satellite Name": "Test1 1253",
        "Satellite Number": 1253,
        "Semi-Major Axis(m)": 6980739.136638005,
        "Time(s)": 70
    },
    {
        "Altitude(m)": 606796.3031313028,
        "Argument of Periapsis(deg)": 0.0008335156730637124,
        "Eccentricity": 0.0,
        "Inclination(deg)": 60.0,
        "Latitude(deg)": -10.007521641901658,
        "Longitude(deg)": 173.87752538980786,
        "Mean Anomaly(deg)": -11.402750836305364,
        "RAAN(deg)": 279.996639606882,
        "Satellite Name": "Test1 1253",
        "Satellite Number": 1253,
        "Semi-Major Axis(m)": 6980739.136638005,
        "Time(s)": 80
    },
    {
        "Altitude(m)": 606670.8682030776,
        "Argument of Periapsis(deg)": 0.0009377051321966765,
        "Eccentricity": 0.0,
        "Inclination(deg)": 60.0,
        "Latitude(deg)": -9.470119730190337,
        "Longitude(deg)": 174.15455491943348,
        "Mean Anomaly(deg)": -10.782644690843513,
        "RAAN(deg)": 279.9962195577423,
        "Satellite Name": "Test1 1253",
        "Satellite Number": 1253,
        "Semi-Major Axis(m)": 6980739.136638005,
        "Time(s)": 90
    },
    {
        "Altitude(m)": 606548.2757888851,
        "Argument of Periapsis(deg)": 0.0010418945913296407,
        "Eccentricity": 0.0,
        "Inclination(deg)": 60.0,
        "Latitude(deg)": -8.932398630785542,
        "Longitude(deg)": 174.43060547836654,
        "Mean Anomaly(deg)": -10.16253854538166,
        "RAAN(deg)": 279.99579950860254,
        "Satellite Name": "Test1 1253",
        "Satellite Number": 1253,
        "Semi-Major Axis(m)": 6980739.136638005,
        "Time(s)": 100
    },
    {
        "Altitude(m)": 606428.559567113,
        "Argument of Periapsis(deg)": 0.0011460840504626045,
        "Eccentricity": 0.0,
        "Inclination(deg)": 60.0,
        "Latitude(deg)": -8.394376839672912,
        "Longitude(deg)": 174.7057360578919,
        "Mean Anomaly(deg)": -9.542432399919857,
        "RAAN(deg)": 279.9953794594628,
        "Satellite Name": "Test1 1253",
        "Satellite Number": 1253,
        "Semi-Major Axis(m)": 6980739.136638005,
        "Time(s)": 110
    },
    {
        "Altitude(m)": 606311.7518106303,
        "Argument of Periapsis(deg)": 0.0012502735095955685,
        "Eccentricity": 0.0,
        "Inclination(deg)": 60.0,
        "Latitude(deg)": -7.856072682895431,
        "Longitude(deg)": 174.98000510596083,
        "Mean Anomaly(deg)": -8.922326254458003,
        "RAAN(deg)": 279.9949594103231,
        "Satellite Name": "Test1 1253",
        "Satellite Number": 1253,
        "Semi-Major Axis(m)": 6980739.136638005,
        "Time(s)": 120
    },
    {
        "Altitude(m)": 606197.8833737079,
        "Argument of Periapsis(deg)": 0.0013544629687285324,
        "Eccentricity": 0.0,
        "Inclination(deg)": 60.0,
        "Latitude(deg)": -7.317504328155711,
        "Longitude(deg)": 175.25347106699974,
        "Mean Anomaly(deg)": -8.302220108996252,
        "RAAN(deg)": 279.99453936118334,
        "Satellite Name": "Test1 1253",
        "Satellite Number": 1253,
        "Semi-Major Axis(m)": 6980739.136638005,
        "Time(s)": 130
    },
    {
        "Altitude(m)": 606086.9836796607,
        "Argument of Periapsis(deg)": 0.0014586524278614966,
        "Eccentricity": 0.0,
        "Inclination(deg)": 60.0,
        "Latitude(deg)": -6.778689796197829,
        "Longitude(deg)": 175.52619140840292,
        "Mean Anomaly(deg)": -7.6821139635344,
        "RAAN(deg)": 279.99411931204355,
        "Satellite Name": "Test1 1253",
        "Satellite Number": 1253,
        "Semi-Major Axis(m)": 6980739.136638005,
        "Time(s)": 140
    },
    {
        "Altitude(m)": 605979.0807092318,
        "Argument of Periapsis(deg)": 0.0015628418869944607,
        "Eccentricity": 0.0,
        "Inclination(deg)": 60.0,
        "Latitude(deg)": -6.239646971991623,
        "Longitude(deg)": 175.79822315948397,
        "Mean Anomaly(deg)": -7.062007818072598,
        "RAAN(deg)": 279.9936992629039,
        "Satellite Name": "Test1 1253",
        "Satellite Number": 1253,
        "Semi-Major Axis(m)": 6980739.136638005,
        "Time(s)": 150
    },
    {
        "Altitude(m)": 605874.2009896081,
        "Argument of Periapsis(deg)": 0.0016670313461274247,
        "Eccentricity": 0.0,
        "Inclination(deg)": 60.0,
        "Latitude(deg)": -5.7003936157300314,
        "Longitude(deg)": 176.06962345004362,
        "Mean Anomaly(deg)": -6.4419016726107445,
        "RAAN(deg)": 279.9932792137641,
        "Satellite Name": "Test1 1253",
        "Satellite Number": 1253,
        "Semi-Major Axis(m)": 6980739.136638005,
        "Time(s)": 160
    },
    {
        "Altitude(m)": 605772.3695842098,
        "Argument of Periapsis(deg)": 0.0017712208052603888,
        "Eccentricity": 0.0,
        "Inclination(deg)": 60.0,
        "Latitude(deg)": -5.160947373653506,
        "Longitude(deg)": 176.34044853570867,
        "Mean Anomaly(deg)": -5.821795527148994,
        "RAAN(deg)": 279.99285916462435,
        "Satellite Name": "Test1 1253",
        "Satellite Number": 1253,
        "Semi-Major Axis(m)": 6980739.136638005,
        "Time(s)": 170
    },
    {
        "Altitude(m)": 605673.6100831814,
        "Argument of Periapsis(deg)": 0.001875410264393353,
        "Eccentricity": 0.0,
        "Inclination(deg)": 60.0,
        "Latitude(deg)": -4.621325788719955,
        "Longitude(deg)": 176.6107543358178,
        "Mean Anomaly(deg)": -5.20168938168714,
        "RAAN(deg)": 279.9924391154846,
        "Satellite Name": "Test1 1253",
        "Satellite Number": 1253,
        "Semi-Major Axis(m)": 6980739.136638005,
        "Time(s)": 180
    },
    {
        "Altitude(m)": 605577.9445945922,
        "Argument of Periapsis(deg)": 0.0019795997235263173,
        "Eccentricity": 0.0,
        "Inclination(deg)": 60.0,
        "Latitude(deg)": -4.081546311134111,
        "Longitude(deg)": 176.88059697101136,
        "Mean Anomaly(deg)": -4.581583236225338,
        "RAAN(deg)": 279.9920190663449,
        "Satellite Name": "Test1 1253",
        "Satellite Number": 1253,
        "Semi-Major Axis(m)": 6980739.136638005,
        "Time(s)": 190
    }
]